    CK15V010  2017 12 16.7825  4.270325  0.998095  179.6202  197.1807  139.2242  20210321   6.5  4.0  C/2015 V1 (PANSTARRS)                                    MPEC 2021-F20
    CK15V020  2017 06 11.8169  1.644807  1.001860  165.0017   69.9086   49.8506  20210321   5.0  4.0  C/2015 V2 (Johnson)                                      MPC112390
    CK15V040  2016 08 28.1567  5.459691  0.704386  306.9611  179.9386   60.7890  20210321   8.5  4.0  C/2015 V4 (PANSTARRS)                                    MPC104791
    CK15V62L  2017 08 27.8657  2.718794  1.001262  128.8148   95.1100  165.8173  20210321   8.0  4.0  C/2015 VL62 (Lemmon-Yeung-PANSTARRS)                     MPC115881
    CK15W00Z  2016 04 13.7159  1.381551  0.990627   66.7635   40.1996  134.6374  20210321  15.0  4.0  C/2015 WZ (PANSTARRS)                                    MPC102098
    CK15W010  2016 05 13.5255  2.243575  0.999111   48.1633  114.3163   87.3631  20210321  13.0  4.0  C/2015 W1 (Gibbs)                                        MPC109142
    PK15W020  2015 09 30.8457  2.670150  0.633992  117.4929  294.2486   11.6070  20210321  13.0  4.0  P/2015 W2 (Catalina)                                     MPC101098
    PK15X010  2022 09  7.1499  2.110171  0.419043  218.9249  161.7674   12.1515  20210321  16.0  4.0  P/2015 X1 (PANSTARRS)                                    MPC101098
    CK15X01Y  2018 04 27.4273  7.923405  1.002410  196.2135  281.6186  148.8542  20210321   5.5  4.0  C/2015 XY1 (Lemmon)                                      MPEC 2021-F20
    PK15X030  2026 10 24.0745  2.810089  0.438991  306.6582   77.3097   24.3881  20210321  15.0  4.0  P/2015 X3 (PANSTARRS)                                    MPC 97498
    CK15X050  2017 12 29.1213  6.796542  1.001526   27.6393  122.3456  124.3083  20210321   7.5  4.0  C/2015 X5 (PANSTARRS)                                    MPC119995
    PK15X060  2020 10 17.1100  2.278130  0.172626  329.8620  106.9471    4.5647  20210321  16.0  4.0  P/2015 X6 (PANSTARRS)                                    MPC115881
    CK15X070  2016 07 29.0721  3.680024  0.999530  348.3627  139.9324   57.5594  20210321   9.0  4.0  C/2015 X7 (ATLAS)                                        MPC109143
    CK15Y010  2016 05 13.2865  2.516125  0.989498   24.6495  135.8187   71.1630  20210321  12.0  4.0  C/2015 Y1 (LINEAR)                                       MPC109143
    CK16A010  2017 11 22.3342  5.321758  1.001032   10.2194  128.2079  121.2052  20210321   6.0  4.0  C/2016 A1 (PANSTARRS)                                    MPEC 2021-F20
    PK16A020  2025 10 25.5935  3.465893  0.270598  141.4674  291.6159   26.4055  20210321  11.5  4.0  P/2016 A2 (Christensen)                                  MPC100282
    PK16A030  2017 04 28.8818  4.836859  0.386917  341.0175  187.2507    8.5100  20210321  10.0  4.0  P/2016 A3 (PANSTARRS)                                    MPC115881
    PK16A070  2016 02 23.9348  2.189085  0.565004  352.6208  221.4912   16.6168  20210321  16.0  4.0  P/2016 A7 (PANSTARRS)                                    MPC102098
    CK16A080  2016 08 29.0988  1.890753  0.944941  130.4453  111.3459  148.2430  20210321  12.0  4.0  C/2016 A8 (LINEAR)                                       MPC106345
    CK16B010  2016 12  4.4599  3.216923  0.992661    8.6866  232.0168   50.4452  20210321   9.5  4.0  C/2016 B1 (NEOWISE)                                      MPC107048
    PK16B14A  2021 06 17.3235  1.012810  0.665222  351.8891  180.5275   18.8935  20210321  21.0  4.0  P/2016 BA14 (PANSTARRS)                                  MPC109143
    CK16C010  2016 02 18.0291  8.462936  1.001609  328.7076  181.8235   56.2386  20210321   5.5  4.0  C/2016 C1 (PANSTARRS)                                    MPC110494
    CK16C020  2016 04 19.0252  1.570151  0.976191  214.5873   24.4287   38.0286  20210321  16.0  4.0  C/2016 C2 (NEOWISE)                                      MPC101098
    CK16E010  2017 06  4.4167  8.178712  1.006346   47.4798  233.0876  131.8849  20210321   6.5  4.0  C/2016 E1 (PANSTARRS)                                    MPC110494
    PK16G010  2021 03 22.1501  2.037893  0.211224  111.2099  204.0356   10.9680  20210321  14.0  4.0  P/2016 G1 (PANSTARRS)                                    MPC102098
    PK16J01a  2022 02 20.5079  2.449816  0.228041   46.9372  199.8126   14.3265  20210321  16.5  4.0  P/2016 J1-A (PANSTARRS)                                  MPEC 2017-D91
    PK16J01b  2022 02 19.7178  2.450003  0.227892   46.8284  199.8174   14.3292  20210321  17.0  4.0  P/2016 J1-B (PANSTARRS)                                  MPEC 2017-A77
    CK16J020  2016 04 12.6220  1.518369  0.997659  318.6595  186.4422  130.3257  20210321  17.0  4.0  C/2016 J2 (Denneau)                                      MPC101099
    CK16K010  2016 07 13.5840  2.296046  1.000224   18.3242  325.6122   90.9445  20210321  13.0  4.0  C/2016 K1 (LINEAR)                                       MPC104792
    CK16M010  2018 08 10.4251  2.213020  0.999768  209.9083   92.2147   90.9831  20210321   5.0  4.0  C/2016 M1 (PANSTARRS)                                    MPC119995
    CK16N040  2017 09 16.6951  3.197589  0.998882   55.9405  353.9936   72.6260  20210321   8.5  4.0  C/2016 N4 (MASTER)                                       MPEC 2021-F20
    CK16N060  2018 07 17.9835  2.665005  0.998080  162.7093  298.9877  105.8411  20210321   7.0  4.0  C/2016 N6 (PANSTARRS)                                    MPEC 2021-F20
    PK16P010  2021 06 10.2443  2.270222  0.289125  270.0908  319.5649   24.4563  20210321  15.0  4.0  P/2016 P1 (PANSTARRS)                                    MPC102099
    CK16P040  2016 10 18.6413  5.898093  0.985809  356.2433  320.7240   29.8803  20210321  10.5  4.0  C/2016 P4 (PANSTARRS)                                    MPC102099
    CK16Q020  2021 05 11.8320  7.081937  1.000462   84.5244  322.2959  109.3882  20210321   6.0  4.0  C/2016 Q2 (PANSTARRS)                                    MPEC 2021-F20
    CK16Q040  2018 01 27.9611  7.086599  0.581639   99.4500  271.2909    7.2558  20210321   7.0  4.0  C/2016 Q4 (Kowalski)                                     MPC102955
    CK16R020  2018 05  9.0861  2.601908  0.994887   33.1519   80.5589   58.2382  20210321   7.0  4.0  C/2016 R2 (PANSTARRS)                                    MPC119995
    CK16R030  2016 10 10.0211  0.453700  0.997709  118.1738   78.7656   53.0316  20210321  18.0  4.0  C/2016 R3 (Borisov)                                      MPC102099
    PK16R040  2016 07 22.1915  2.792076  0.476310  174.0326  168.2688   10.8740  20210321  12.5  4.0  P/2016 R4 (Gibbs)                                        MPC109144
    PK16S010  2017 03 15.9732  2.400932  0.709976  273.2792  227.5546   94.6785  20210321  12.0  4.0  P/2016 S1 (PANSTARRS)                                    MPC105543
    CK16T010  2017 02  1.3945  2.305629  0.981578  137.4794   56.3365  129.8506  20210321  14.5  4.0  C/2016 T1 (Matheny)                                      MPC105238
    CK16T020  2016 12 29.4042  1.903689  0.980819   92.2045  339.1835   81.3990  20210321  14.5  4.0  C/2016 T2 (Matheny)                                      MPC107685
    CK16T030  2017 09  6.4156  2.646993  0.979774  194.6282  271.7256   22.6833  20210321  10.5  4.0  C/2016 T3 (PANSTARRS)                                    MPC110082
    CK16U010  2017 01 13.7946  0.323570  1.000406  162.8164   61.5620   46.2944  20210321  17.0  4.0  C/2016 U1 (NEOWISE)                                      MPC103847
    CK16V18Z  2017 03  5.3540  0.914452  0.994368   36.4035   98.9207   23.9795  20210321  19.5  4.0  C/2016 VZ18 (PANSTARRS)                                  MPC106345
    PK16W48M  2017 02 23.6433  1.765187  0.783815   36.0851   59.9047  117.4581  20210321  15.0  4.0  P/2016 WM48 (Lemmon)                                     MPC106345
    CK16X010  2019 04 28.4406  7.562150  0.994081  224.4946  256.4040   26.4529  20210321   6.0  4.0  C/2016 X1 (Lemmon)                                       MPEC 2021-F20
    CK16X010  2019 04 28.4367  7.562119  0.994033  224.4942  256.4041   26.4530  20210321   6.0  4.0  C/2016 X1 (Lemmon)                                       MPC119995
    CK17A010  2017 05 16.0955  2.289975  0.969856    2.0037  121.0437   49.7927  20210321  13.0  4.0  C/2017 A1 (PANSTARRS)                                    MPC108594
    CK17A030  2017 01 30.9018  3.845105  0.911470  303.9882   97.8939   98.5270  20210321   9.5  4.0  C/2017 A3 (Elenin)                                       MPC108594
    CK17A05B  2018 02 15.2367  9.211731  0.996005   78.3242   42.6356   32.4429  20210321   5.5  4.0  C/2017 AB5 (PANSTARRS)                                   MPC114598
    CK17B030  2019 02  2.5499  3.923441  1.001552  284.7982    2.1791   54.1678  20210321   6.0  4.0  C/2017 B3 (LINEAR)                                       MPEC 2021-F20
    PK17B040  2017 01  5.8178  2.800894  0.364952   11.0197  121.4578   20.0584            14.5  4.0  P/2017 B4 (PANSTARRS)                                    MPC103847
    CK17C010  2017 01 18.4764  1.498536  0.927173  110.0547  357.5572   65.7626  20210321  18.0  4.0  C/2017 C1 (NEOWISE)                                      MPC104793
    CK17C020  2017 01 21.4381  2.422115  0.974768  138.5763  249.7649  118.5855  20210321  14.0  4.0  C/2017 C2 (PANSTARRS)                                    MPC107685
    PK17D010  2016 06 23.7362  2.722809  0.436249    8.0344   82.1803   20.7557  20210321  14.0  4.0  P/2017 D1 (Fuls)                                         MPC104793
    CK17D020  2017 07 14.9037  2.491313  0.999537  334.5449  330.9507   31.2579  20210321  11.0  4.0  C/2017 D2 (Barros)                                       MPC112391
    CK17D030  2017 04 27.4237  4.972015  1.002231  340.8582  186.6854  125.5867  20210321   8.0  4.0  C/2017 D3 (ATLAS)                                        MPC114598
